{
  "norad_id": 54766,
  "name": "STARLINK-5471",
  "history": [
    {
      "epoch": "2026-03-28T20:42:54.361152Z",
      "apogee_km": 540.7917131483282,
      "perigee_km": 538.7193892556888,
      "latitude_deg": 4.0280549631080226e-05,
      "longitude_deg": -178.96014970371837,
      "height_km": 540.711446230493,
      "semi_major_axis_km": 6917.892551202008,
      "eccentricity": 0.00014978,
      "inclination_deg": 53.2182,
      "raan_deg": 318.0438,
      "arg_perigee_deg": 93.3363,
      "mean_anomaly_deg": 266.7801,
      "mean_motion_rev_day": 15.08836021
    },
    {
      "epoch": "2026-03-28T22:18:17.472096Z",
      "apogee_km": 540.7867478568751,
      "perigee_km": 538.7210656321213,
      "latitude_deg": 4.5253897361935605e-06,
      "longitude_deg": 156.8309392491025,
      "height_km": 540.7103983825131,
      "semi_major_axis_km": 6917.890906744498,
      "eccentricity": 0.0001493,
      "inclination_deg": 53.2182,
      "raan_deg": 317.7465,
      "arg_perigee_deg": 93.3795,
      "mean_anomaly_deg": 266.7368,
      "mean_motion_rev_day": 15.08836559
    }
  ]
}